OBJECT_NAME,OBJECT_ID,EPOCH,MEAN_MOTION,ECCENTRICITY,INCLINATION,RA_OF_ASC_NODE,ARG_OF_PERICENTER,MEAN_ANOMALY,EPHEMERIS_TYPE,CLASSIFICATION_TYPE,NORAD_CAT_ID,ELEMENT_SET_NO,REV_AT_EPOCH,BSTAR,MEAN_MOTION_DOT,MEAN_MOTION_DDOT
STARLINK-37600,2026-123G,2026-07-02T04:57:51.355296,15.75238009,.00010422,53.1572,167.1355,96.2315,263.8824,0,U,69359,999,440,.16366479E-2,.258033E-2,0
STARLINK-37599,2026-123H,2026-07-02T01:52:26.230368,15.80884107,.00012389,53.1573,167.0153,78.1042,282.0120,0,U,69360,999,439,.17465697E-2,.358922E-2,0
STARLINK-37039,2026-123J,2026-07-01T13:11:03.866784,15.75318049,.0000965,53.1604,170.1359,49.1043,311.0061,0,U,69361,999,430,.28048606E-3,.42721E-3,0
STARLINK-37040,2026-123K,2026-07-02T13:40:02.374752,15.81014713,.00027838,53.1562,164.3827,31.8892,328.2299,0,U,69362,999,447,.1753455E-2,.362677E-2,0
STARLINK-37582,2026-123L,2026-07-01T05:54:19.900224,15.75323310,.0001367,53.1558,171.8034,98.8675,261.2500,0,U,69363,999,425,.16992E-2,.269284E-2,0
STARLINK-37309,2026-123M,2026-07-01T06:13:47.903808,15.75376126,.0002481,53.1571,171.1532,126.8538,233.2710,0,U,69364,999,426,.21424E-2,.343498E-2,0
STARLINK-37436,2026-123N,2026-07-02T05:45:43.814016,15.80942241,.00017337,53.1570,165.8779,115.8198,244.3004,0,U,69365,999,442,.15081738E-2,.308842E-2,0
STARLINK-37581,2026-123P,2026-07-02T04:20:06.265248,15.80892757,.000138,53.1573,166.2198,137.6216,222.4913,0,U,69366,999,441,.13899722E-2,.283077E-2,0
STARLINK-37683,2026-123Q,2026-07-02T05:29:55.822848,15.75243330,.0000642,53.1561,166.5417,70.1573,289.9516,0,U,69367,999,441,.12721435E-2,.199061E-2,0
STARLINK-37687,2026-123R,2026-07-01T03:51:40.063968,15.81107222,.00037587,53.1574,171.2333,166.5290,193.5834,0,U,69368,999,425,.18024139E-2,.374991E-2,0
STARLINK-37631,2026-123S,2026-07-02T06:09:28.488672,15.75244078,.00015095,53.1594,165.9881,97.5469,262.5723,0,U,69369,999,442,.10187898E-2,.158524E-2,0
STARLINK-37673,2026-123T,2026-07-01T06:20:20.280768,15.75305102,.0001166,53.1595,171.1836,68.7626,291.3519,0,U,69370,999,426,.16277E-2,.257343E-2,0
STARLINK-37645,2026-123U,2026-07-01T22:45:43.603776,15.75247827,.00015411,53.1584,167.6242,114.0897,246.0284,0,U,69371,999,437,.22918579E-2,.36647E-2,0
STARLINK-37688,2026-123V,2026-07-02T04:31:06.127104,15.75261784,.00007093,53.1605,166.2684,57.2505,302.8583,0,U,69372,999,441,.18578666E-2,.294592E-2,0
STARLINK-37685,2026-123W,2026-07-01T23:33:56.129760,15.80882743,.00013063,53.1567,167.1071,81.1335,278.9835,0,U,69373,999,438,.10752425E-2,.217035E-2,0
STARLINK-37632,2026-123X,2026-07-02T08:00:01.999872,15.80877133,.00011293,53.1573,165.3388,47.6212,158.0438,0,U,69374,999,559,-.13870211E-4,-.3436E-4,0
STARLINK-37454,2026-123Y,2026-07-02T05:35:26.465280,15.80944402,.00013233,53.1575,165.8269,94.6820,265.4354,0,U,69375,999,442,.13686591E-2,.279266E-2,0
STARLINK-37485,2026-123Z,2026-07-01T08:00:03.000384,15.75271939,.00008881,53.1576,170.6239,74.3642,63.5013,0,U,69376,999,557,-.71661096E-3,-.109234E-2,0
STARLINK-37439,2026-123AA,2026-07-02T05:24:07.645536,15.80907316,.00014265,53.1569,165.7739,107.7450,252.3729,0,U,69377,999,442,.11189015E-2,.226379E-2,0
STARLINK-37376,2026-123AB,2026-07-01T06:19:52.175712,15.75354491,.0001081,53.1592,171.1789,100.4327,259.6815,0,U,69378,999,426,.16411E-2,.260116E-2,0
STARLINK-37383,2026-123AC,2026-07-02T05:49:51.970368,15.75261074,.00015332,53.1596,165.8911,89.5336,270.5860,0,U,69379,999,442,.12361019E-2,.193421E-2,0
STARLINK-37411,2026-123AD,2026-07-02T05:26:04.392672,15.80832879,.00007656,53.1575,165.7820,85.3940,274.7171,0,U,69380,999,442,.13918393E-2,.28267E-2,0
STARLINK-37427,2026-123AE,2026-07-02T05:20:10.360896,15.80884387,.00016695,53.1577,165.7538,96.2282,263.8931,0,U,69381,999,442,.94411746E-3,.189894E-2,0
QIANFAN-165,2026-124A,2026-07-02T10:47:07.556064,14.10878157,.00085957,88.9979,0.3153,84.3495,275.8670,0,U,69382,999,397,-.11567556E+1,-.1928487E-1,0
QIANFAN-166,2026-124B,2026-07-02T10:23:48.705504,14.10977007,.00089261,88.9983,0.3128,109.6861,250.5288,0,U,69383,999,397,-.99287986E+0,-.1657021E-1,0
QIANFAN-167,2026-124C,2026-07-02T12:14:32.273664,14.11450040,.00075176,88.9981,0.3057,113.1135,247.0843,0,U,69384,999,398,-.1124866E+1,-.189709E-1,0
QIANFAN-168,2026-124D,2026-07-02T11:49:28.005600,14.13058136,.00018151,88.9981,0.3032,118.4750,241.6619,0,U,69385,999,398,-.1184939E+1,-.2046181E-1,0
QIANFAN-169,2026-124E,2026-07-02T11:43:58.184832,14.09901239,.00081999,88.9979,0.3028,218.2584,141.8020,0,U,69386,999,398,-.14223894E+1,-.2297522E-1,0
QIANFAN-170,2026-124F,2026-07-02T11:21:13.910688,14.14463020,.0003548,88.9980,0.2998,158.1862,201.9477,0,U,69387,999,398,-.11203787E+1,-.1989685E-1,0
QIANFAN-171,2026-124G,2026-07-02T11:04:12.096768,14.15927874,.00093221,88.9980,0.2979,184.0227,176.0888,0,U,69388,999,398,-.11465726E+1,-.2085257E-1,0
